     2.10           NAVIGATION DATA                         RINEX VERSION / TYPE
SPIDER V4,0,0,3554                      2015 03 24 01:40    PGM / RUN BY / DATE 
   1.6764D-08  0.0000D+00 -1.1921D-07  5.9605D-08           ION ALPHA           
   1.2288D+05 -3.2768D+04 -1.9661D+05 -6.5536D+04           ION BETA            
   -2.793967723846D-09-1.421085471520D-14   319488     1833 DELTA-UTC: A0,A1,T,W
    16                                                      LEAP SECONDS        
                                                            END OF HEADER       
31 15 02 22 23 59 44.0 3.226888366044D-04-9.094947017729D-13 0.000000000000D+00
    4.000000000000D+00-5.800000000000D+01 4.486972571272D-09-2.548578640907D+00
   -2.864748239517D-06 8.279381901957D-03 6.042420864105D-06 5.153733024597D+03
    8.638400000000D+04-1.564621925354D-07 2.870691343040D+00 8.754432201385D-08
    9.762367440875D-01 2.720625000000D+02-5.444496309239D-01-8.058193223803D-09
   -3.500145728808D-10 1.000000000000D+00 1.833000000000D+03 0.000000000000D+00
    2.000000000000D+00 0.000000000000D+00-1.350417733192D-08 4.000000000000D+00
    8.638400000000D+04 0.000000000000D+00
16 15 02 23 00 00  0.0-1.539629884064D-04 3.410605131648D-12 0.000000000000D+00
    8.100000000000D+01-1.206250000000D+01 3.730869835294D-09 1.256767704117D+00
   -3.110617399216D-07 8.113050716929D-03 1.204572618008D-05 5.153759067535D+03
    8.640000000000D+04 2.793967723846D-08-2.334579502527D+00 1.005828380585D-07
    9.899229615334D-01 1.610312500000D+02 2.421031654372D-01-7.718536032542D-09
   -8.500353892993D-11 1.000000000000D+00 1.833000000000D+03 0.000000000000D+00
    2.000000000000D+00 0.000000000000D+00-1.024454832077D-08 8.100000000000D+01
    8.640000000000D+04 0.000000000000D+00
27 15 02 22 23 59 28.0 5.332799628377D-05 2.614797267597D-12 0.000000000000D+00
    3.700000000000D+01 3.440625000000D+01 4.694838295904D-09 4.169080425563D-01
    1.737847924232D-06 2.037637517788D-03 6.042420864105D-06 5.153684514999D+03
    8.636800000000D+04 4.842877388000D-08-1.353570188626D+00 4.470348358154D-08
    9.660329680193D-01 2.616875000000D+02 1.356278358666D-01-8.312846411229D-09
    3.121558567187D-10 1.000000000000D+00 1.833000000000D+03 0.000000000000D+00
    2.000000000000D+00 0.000000000000D+00 1.862645149231D-09 3.700000000000D+01
    8.636800000000D+04 0.000000000000D+00
18 15 02 23 00 00  0.0 3.815297968686D-04 2.728484105319D-12 0.000000000000D+00
    2.300000000000D+01 8.843750000000D+00 5.003422565153D-09 1.822684347079D+00
    3.874301910400D-07 1.574888848700D-02 1.188181340694D-05 5.153769706726D+03
    8.640000000000D+04-1.862645149231D-07 7.263712387691D-01-3.650784492493D-07
    9.254173062939D-01 1.317812500000D+02-1.989481168208D+00-8.246415106328D-09
    4.143029669335D-11 1.000000000000D+00 1.833000000000D+03 0.000000000000D+00
    2.000000000000D+00 0.000000000000D+00-1.117587089539D-08 2.300000000000D+01
    8.640000000000D+04 0.000000000000D+00
16 15 02 22 23 59 44.0-1.539620570838D-04 3.410605131648D-12 0.000000000000D+00
    1.900000000000D+01-1.206250000000D+01 3.730869835294D-09 1.254434259079D+00
   -3.110617399216D-07 8.113047922961D-03 1.204572618008D-05 5.153759067535D+03
    8.638400000000D+04 2.793967723846D-08-2.334579367939D+00 1.005828380585D-07
    9.899229454413D-01 1.610312500000D+02 2.421029752578D-01-7.718536032542D-09
   -8.500353892993D-11 1.000000000000D+00 1.833000000000D+03 0.000000000000D+00
    2.000000000000D+00 0.000000000000D+00-1.024454832077D-08 1.900000000000D+01
    8.638400000000D+04 0.000000000000D+00
